{
  "type": "FeatureCollection",
  "features": [
    {
      "type": "Feature",
      "properties": {
        "norad_id": 65731,
        "name": "1998-067XK",
        "group": "stations",
        "lat": -32.62576220529991,
        "lon": -23.474854794654302,
        "alt_km": 370.737825017457,
        "timestamp": "2025-12-14T22:38:39.540556+00:00",
        "meta_object_name": "1998-067XK",
        "meta_object_id": "1998-067XK",
        "meta_epoch": "2025-12-13T16:35:48.207552",
        "meta_mean_motion": 15.65971562,
        "meta_eccentricity": 0.0005022,
        "meta_inclination": 51.6277,
        "meta_ra_of_asc_node": 132.4028,
        "meta_arg_of_pericenter": 252.6654,
        "meta_mean_anomaly": 107.3793,
        "meta_ephemeris_type": 0,
        "meta_classification_type": "U",
        "meta_norad_cat_id": 65731,
        "meta_element_set_no": 999,
        "meta_rev_at_epoch": 1329,
        "meta_bstar": 0.0009945398,
        "meta_mean_motion_dot": 0.00104411,
        "meta_mean_motion_ddot": 0,
        "tle_line1": "1 65731U 98067XK  25347.69153018  .00104411  00000+0  99454-3 0  9990",
        "tle_line2": "2 65731  51.6277 132.4028 0005022 252.6654 107.3793 15.65971562 13293"
      },
      "geometry": {
        "type": "Point",
        "coordinates": [
          -23.474854794654302,
          -32.62576220529991
        ]
      }
    },
    {
      "type": "Feature",
      "properties": {
        "norad_id": 65732,
        "name": "RSP-03",
        "group": "stations",
        "lat": -29.828195773742387,
        "lon": -27.684248190895353,
        "alt_km": 361.84820326623594,
        "timestamp": "2025-12-14T22:38:39.540566+00:00",
        "meta_object_name": "RSP-03",
        "meta_object_id": "1998-067XL",
        "meta_epoch": "2025-12-13T16:40:16.814784",
        "meta_mean_motion": 15.68925685,
        "meta_eccentricity": 0.00057642,
        "meta_inclination": 51.6251,
        "meta_ra_of_asc_node": 131.6633,
        "meta_arg_of_pericenter": 257.9098,
        "meta_mean_anomaly": 102.1253,
        "meta_ephemeris_type": 0,
        "meta_classification_type": "U",
        "meta_norad_cat_id": 65732,
        "meta_element_set_no": 999,
        "meta_rev_at_epoch": 1331,
        "meta_bstar": 0.0011602018,
        "meta_mean_motion_dot": 0.00138092,
        "meta_mean_motion_ddot": 0,
        "tle_line1": "1 65732U 98067XL  25347.69463906  .00138092  00000+0  11602-2 0  9991",
        "tle_line2": "2 65732  51.6251 131.6633 0005764 257.9098 102.1253 15.68925685 13317"
      },
      "geometry": {
        "type": "Point",
        "coordinates": [
          -27.684248190895353,
          -29.828195773742387
        ]
      }
    },
    {
      "type": "Feature",
      "properties": {
        "norad_id": 65733,
        "name": "GHS-01",
        "group": "stations",
        "lat": -6.290829074120576,
        "lon": -51.134056563929335,
        "alt_km": 344.6395402169328,
        "timestamp": "2025-12-14T22:38:39.540577+00:00",
        "meta_object_name": "GHS-01",
        "meta_object_id": "1998-067XM",
        "meta_epoch": "2025-12-13T15:24:20.714688",
        "meta_mean_motion": 15.75321114,
        "meta_eccentricity": 0.00073966,
        "meta_inclination": 51.6271,
        "meta_ra_of_asc_node": 130.5592,
        "meta_arg_of_pericenter": 286.1274,
        "meta_mean_anomaly": 73.8911,
        "meta_ephemeris_type": 0,
        "meta_classification_type": "U",
        "meta_norad_cat_id": 65733,
        "meta_element_set_no": 999,
        "meta_rev_at_epoch": 1332,
        "meta_bstar": 0.0014639187,
        "meta_mean_motion_dot": 0.0023151,
        "meta_mean_motion_ddot": 0,
        "tle_line1": "1 65733U 98067XM  25347.64190642  .00231510  00000+0  14639-2 0  9993",
        "tle_line2": "2 65733  51.6271 130.5592 0007396 286.1274  73.8911 15.75321114 13326"
      },
      "geometry": {
        "type": "Point",
        "coordinates": [
          -51.134056563929335,
          -6.290829074120576
        ]
      }
    },
    {
      "type": "Feature",
      "properties": {
        "norad_id": 65941,
        "name": "YOTSUBA-KULOVER",
        "group": "stations",
        "lat": -45.75078996770552,
        "lon": 74.4686794989457,
        "alt_km": 391.7848057608271,
        "timestamp": "2025-12-14T22:38:39.540587+00:00",
        "meta_object_name": "YOTSUBA-KULOVER",
        "meta_object_id": "1998-067XN",
        "meta_epoch": "2025-12-14T02:56:12.397344",
        "meta_mean_motion": 15.59689626,
        "meta_eccentricity": 0.00013798,
        "meta_inclination": 51.6286,
        "meta_ra_of_asc_node": 133.0282,
        "meta_arg_of_pericenter": 267.2851,
        "meta_mean_anomaly": 92.7984,
        "meta_ephemeris_type": 0,
        "meta_classification_type": "U",
        "meta_norad_cat_id": 65941,
        "meta_element_set_no": 999,
        "meta_rev_at_epoch": 1007,
        "meta_bstar": 0.00090188305,
        "meta_mean_motion_dot": 0.00073626,
        "meta_mean_motion_ddot": 0,
        "tle_line1": "1 65941U 98067XN  25348.12236571  .00073626  00000+0  90188-3 0  9996",
        "tle_line2": "2 65941  51.6286 133.0282 0001379 267.2851  92.7984 15.59689626 10079"
      },
      "geometry": {
        "type": "Point",
        "coordinates": [
          74.4686794989457,
          -45.75078996770552
        ]
      }
    },
    {
      "type": "Feature",
      "properties": {
        "norad_id": 65942,
        "name": "BOTAN",
        "group": "stations",
        "lat": -47.22551140714278,
        "lon": 69.2307081638604,
        "alt_km": 380.7055218724372,
        "timestamp": "2025-12-14T22:38:39.540597+00:00",
        "meta_object_name": "BOTAN",
        "meta_object_id": "1998-067XP",
        "meta_epoch": "2025-12-13T19:19:30.936288",
        "meta_mean_motion": 15.63168137,
        "meta_eccentricity": 0.00029855,
        "meta_inclination": 51.6273,
        "meta_ra_of_asc_node": 133.9097,
        "meta_arg_of_pericenter": 245.5023,
        "meta_mean_anomaly": 114.566,
        "meta_ephemeris_type": 0,
        "meta_classification_type": "U",
        "meta_norad_cat_id": 65942,
        "meta_element_set_no": 999,
        "meta_rev_at_epoch": 1003,
        "meta_bstar": 0.0012359991,
        "meta_mean_motion_dot": 0.00116317,
        "meta_mean_motion_ddot": 0,
        "tle_line1": "1 65942U 98067XP  25347.80521917  .00116317  00000+0  12360-2 0  9992",
        "tle_line2": "2 65942  51.6273 133.9097 0002985 245.5023 114.5660 15.63168137 10037"
      },
      "geometry": {
        "type": "Point",
        "coordinates": [
          69.2307081638604,
          -47.22551140714278
        ]
      }
    },
    {
      "type": "Feature",
      "properties": {
        "norad_id": 65943,
        "name": "E-KAGAKU-1",
        "group": "stations",
        "lat": -45.956389727366805,
        "lon": 73.89206270953797,
        "alt_km": 392.4646965244301,
        "timestamp": "2025-12-14T22:38:39.540607+00:00",
        "meta_object_name": "E-KAGAKU-1",
        "meta_object_id": "1998-067XQ",
        "meta_epoch": "2025-12-13T16:10:25.766976",
        "meta_mean_motion": 15.59600277,
        "meta_eccentricity": 0.0001883,
        "meta_inclination": 51.6291,
        "meta_ra_of_asc_node": 135.2869,
        "meta_arg_of_pericenter": 210.5697,
        "meta_mean_anomaly": 149.5187,
        "meta_ephemeris_type": 0,
        "meta_classification_type": "U",
        "meta_norad_cat_id": 65943,
        "meta_element_set_no": 999,
        "meta_rev_at_epoch": 1000,
        "meta_bstar": 0.00085555158,
        "meta_mean_motion_dot": 0.00069544,
        "meta_mean_motion_ddot": 0,
        "tle_line1": "1 65943U 98067XQ  25347.67390934  .00069544  00000+0  85555-3 0  9997",
        "tle_line2": "2 65943  51.6291 135.2869 0001883 210.5697 149.5187 15.59600277 10005"
      },
      "geometry": {
        "type": "Point",
        "coordinates": [
          73.89206270953797,
          -45.956389727366805
        ]
      }
    },
    {
      "type": "Feature",
      "properties": {
        "norad_id": 66052,
        "name": "HRC MONOBLOCK CAMERA",
        "group": "stations",
        "lat": -39.87097208409198,
        "lon": -8.046414613237076,
        "alt_km": 406.74160042585027,
        "timestamp": "2025-12-14T22:38:39.540617+00:00",
        "meta_object_name": "HRC MONOBLOCK CAMERA",
        "meta_object_id": "1998-067XR",
        "meta_epoch": "2025-12-14T07:45:02.257920",
        "meta_mean_motion": 15.54276415,
        "meta_eccentricity": 0.00030787,
        "meta_inclination": 51.6291,
        "meta_ra_of_asc_node": 133.6119,
        "meta_arg_of_pericenter": 191.3375,
        "meta_mean_anomaly": 168.7547,
        "meta_ephemeris_type": 0,
        "meta_classification_type": "U",
        "meta_norad_cat_id": 66052,
        "meta_element_set_no": 999,
        "meta_rev_at_epoch": 908,
        "meta_bstar": 0.00060594703,
        "meta_mean_motion_dot": 0.00040056,
        "meta_mean_motion_ddot": 0,
        "tle_line1": "1 66052U 98067XR  25348.32294280  .00040056  00000+0  60595-3 0  9993",
        "tle_line2": "2 66052  51.6291 133.6119 0003078 191.3375 168.7547 15.54276415  9081"
      },
      "geometry": {
        "type": "Point",
        "coordinates": [
          -8.046414613237076,
          -39.87097208409198
        ]
      }
    }
  ]
}